[
  {
    "OBJECT_NAME": "STARLINK-35076",
    "OBJECT_ID": "25194Z",
    "EPOCH": "2025-11-11T04:26:17.683296",
    "MEAN_MOTION": 15.05658894,
    "ECCENTRICITY": 0.0002912,
    "INCLINATION": 97.6014,
    "RA_OF_ASC_NODE": 167.5433,
    "ARG_OF_PERICENTER": 79.6451,
    "MEAN_ANOMALY": 280.5104,
    "EPHEMERIS_TYPE": 0,
    "CLASSIFICATION_TYPE": "U",
    "NORAD_CAT_ID": 65457,
    "ELEMENT_SET_NO": 999,
    "REV_AT_EPOCH": 1181,
    "BSTAR": 0.0005777099999999999,
    "MEAN_MOTION_DOT": 8.287e-05,
    "MEAN_MOTION_DDOT": 0.0,
    "TLE_LINE1": "1 65457U 25194Z   25315.18492689  .00008287  00000+0  57771-3 0  9995",
    "TLE_LINE2": "2 65457  97.6014 167.5433 0002912  79.6451 280.5104 15.05658894 11813",
    "COMMENT": "Grouped by shell and plane from TLE"
  }
]